{
  "type": "FeatureCollection",
  "features": [
    {
      "type": "Feature",
      "properties": {
        "norad_id": 39766,
        "name": "ALOS-2",
        "group": "resource",
        "lat": 65.91210643621568,
        "lon": -81.77389629183048,
        "alt_km": 623.5429405771038,
        "timestamp": "2025-12-11T05:00:25.968059+00:00",
        "meta_object_name": "ALOS-2",
        "meta_object_id": "2014-029A",
        "meta_epoch": "2025-12-10T15:30:49.837824",
        "meta_mean_motion": 14.79468531,
        "meta_eccentricity": 0.00015183,
        "meta_inclination": 97.9227,
        "meta_ra_of_asc_node": 79.5227,
        "meta_arg_of_pericenter": 98.8561,
        "meta_mean_anomaly": 261.2822,
        "meta_ephemeris_type": 0,
        "meta_classification_type": "U",
        "meta_norad_cat_id": 39766,
        "meta_element_set_no": 999,
        "meta_rev_at_epoch": 62370,
        "meta_bstar": 0.00040295078,
        "meta_mean_motion_dot": 2.959e-05,
        "meta_mean_motion_ddot": 0,
        "tle_line1": "1 39766U 14029A   25344.64641016  .00002959  00000+0  40295-3 0  9990",
        "tle_line2": "2 39766  97.9227  79.5227 0001518  98.8561 261.2822 14.79468531623702"
      },
      "geometry": {
        "type": "Point",
        "coordinates": [
          -81.77389629183048,
          65.91210643621568
        ]
      }
    },
    {
      "type": "Feature",
      "properties": {
        "norad_id": 40010,
        "name": "KAZEOSAT 2",
        "group": "resource",
        "lat": -8.41309762178797,
        "lon": -169.27379211812374,
        "alt_km": 621.1278661590095,
        "timestamp": "2025-12-11T05:00:25.968069+00:00",
        "meta_object_name": "KAZEOSAT 2",
        "meta_object_id": "2014-033A",
        "meta_epoch": "2025-12-10T22:34:38.853408",
        "meta_mean_motion": 14.85165822,
        "meta_eccentricity": 0.00075278,
        "meta_inclination": 97.5503,
        "meta_ra_of_asc_node": 189.3482,
        "meta_arg_of_pericenter": 213.0355,
        "meta_mean_anomaly": 147.0392,
        "meta_ephemeris_type": 0,
        "meta_classification_type": "U",
        "meta_norad_cat_id": 40010,
        "meta_element_set_no": 999,
        "meta_rev_at_epoch": 62101,
        "meta_bstar": 0.00023272796,
        "meta_mean_motion_dot": 1.943e-05,
        "meta_mean_motion_ddot": 0,
        "tle_line1": "1 40010U 14033A   25344.94072747  .00001943  00000+0  23273-3 0  9990",
        "tle_line2": "2 40010  97.5503 189.3482 0007527 213.0355 147.0392 14.85165822621019"
      },
      "geometry": {
        "type": "Point",
        "coordinates": [
          -169.27379211812374,
          -8.41309762178797
        ]
      }
    },
    {
      "type": "Feature",
      "properties": {
        "norad_id": 40011,
        "name": "HODOYOSHI-4",
        "group": "resource",
        "lat": 65.28649667175476,
        "lon": 157.4384053330221,
        "alt_km": 611.7755710157926,
        "timestamp": "2025-12-11T05:00:25.968079+00:00",
        "meta_object_name": "HODOYOSHI-4",
        "meta_object_id": "2014-033B",
        "meta_epoch": "2025-12-10T23:51:54.207360",
        "meta_mean_motion": 14.87470078,
        "meta_eccentricity": 0.00231192,
        "meta_inclination": 97.5416,
        "meta_ra_of_asc_node": 173.9644,
        "meta_arg_of_pericenter": 206.7764,
        "meta_mean_anomaly": 153.2261,
        "meta_ephemeris_type": 0,
        "meta_classification_type": "U",
        "meta_norad_cat_id": 40011,
        "meta_element_set_no": 999,
        "meta_rev_at_epoch": 62082,
        "meta_bstar": 0.00029919677,
        "meta_mean_motion_dot": 2.671e-05,
        "meta_mean_motion_ddot": 0,
        "tle_line1": "1 40011U 14033B   25344.99437740  .00002671  00000+0  29920-3 0  9998",
        "tle_line2": "2 40011  97.5416 173.9644 0023119 206.7764 153.2261 14.87470078620826"
      },
      "geometry": {
        "type": "Point",
        "coordinates": [
          157.4384053330221,
          65.28649667175476
        ]
      }
    },
    {
      "type": "Feature",
      "properties": {
        "norad_id": 40013,
        "name": "DEIMOS-2",
        "group": "resource",
        "lat": -13.629384782331826,
        "lon": 39.202999515131715,
        "alt_km": 593.505646296805,
        "timestamp": "2025-12-11T05:00:25.968089+00:00",
        "meta_object_name": "DEIMOS-2",
        "meta_object_id": "2014-033D",
        "meta_epoch": "2025-12-10T21:42:30.589344",
        "meta_mean_motion": 14.92958714,
        "meta_eccentricity": 9.323e-05,
        "meta_inclination": 97.6063,
        "meta_ra_of_asc_node": 220.7658,
        "meta_arg_of_pericenter": 90.5838,
        "meta_mean_anomaly": 269.5489,
        "meta_ephemeris_type": 0,
        "meta_classification_type": "U",
        "meta_norad_cat_id": 40013,
        "meta_element_set_no": 999,
        "meta_rev_at_epoch": 60962,
        "meta_bstar": 0.00019162006,
        "meta_mean_motion_dot": 1.935e-05,
        "meta_mean_motion_ddot": 0,
        "tle_line1": "1 40013U 14033D   25344.90452071  .00001935  00000+0  19162-3 0  9994",
        "tle_line2": "2 40013  97.6063 220.7658 0000932  90.5838 269.5489 14.92958714609624"
      },
      "geometry": {
        "type": "Point",
        "coordinates": [
          39.202999515131715,
          -13.629384782331826
        ]
      }
    },
    {
      "type": "Feature",
      "properties": {
        "norad_id": 40015,
        "name": "HODOYOSHI-3",
        "group": "resource",
        "lat": 6.863552134542934,
        "lon": 150.186800946662,
        "alt_km": 625.2567986881731,
        "timestamp": "2025-12-11T05:00:25.968118+00:00",
        "meta_object_name": "HODOYOSHI-3",
        "meta_object_id": "2014-033F",
        "meta_epoch": "2025-12-10T20:53:20.913216",
        "meta_mean_motion": 14.84796542,
        "meta_eccentricity": 0.00318544,
        "meta_inclination": 97.6201,
        "meta_ra_of_asc_node": 150.7867,
        "meta_arg_of_pericenter": 254.3284,
        "meta_mean_anomaly": 105.4416,
        "meta_ephemeris_type": 0,
        "meta_classification_type": "U",
        "meta_norad_cat_id": 40015,
        "meta_element_set_no": 999,
        "meta_rev_at_epoch": 61967,
        "meta_bstar": 0.00032679763,
        "meta_mean_motion_dot": 2.746e-05,
        "meta_mean_motion_ddot": 0,
        "tle_line1": "1 40015U 14033F   25344.87038094  .00002746  00000+0  32680-3 0  9998",
        "tle_line2": "2 40015  97.6201 150.7867 0031854 254.3284 105.4416 14.84796542619670"
      },
      "geometry": {
        "type": "Point",
        "coordinates": [
          150.186800946662,
          6.863552134542934
        ]
      }
    },
    {
      "type": "Feature",
      "properties": {
        "norad_id": 40053,
        "name": "SPOT 7",
        "group": "resource",
        "lat": -41.47151624423129,
        "lon": -139.90343557240095,
        "alt_km": 698.1759304022489,
        "timestamp": "2025-12-11T05:00:25.968133+00:00",
        "meta_object_name": "SPOT 7",
        "meta_object_id": "2014-034A",
        "meta_epoch": "2025-12-10T23:03:45.496800",
        "meta_mean_motion": 14.60729442,
        "meta_eccentricity": 0.00015622,
        "meta_inclination": 98.0904,
        "meta_ra_of_asc_node": 47.077,
        "meta_arg_of_pericenter": 88.0294,
        "meta_mean_anomaly": 272.1086,
        "meta_ephemeris_type": 0,
        "meta_classification_type": "U",
        "meta_norad_cat_id": 40053,
        "meta_element_set_no": 999,
        "meta_rev_at_epoch": 60965,
        "meta_bstar": 0.000157506,
        "meta_mean_motion_dot": 7.22e-06,
        "meta_mean_motion_ddot": 0,
        "tle_line1": "1 40053U 14034A   25344.96094325  .00000722  00000+0  15751-3 0  9992",
        "tle_line2": "2 40053  98.0904  47.0770 0001562  88.0294 272.1086 14.60729442609655"
      },
      "geometry": {
        "type": "Point",
        "coordinates": [
          -139.90343557240095,
          -41.47151624423129
        ]
      }
    },
    {
      "type": "Feature",
      "properties": {
        "norad_id": 40072,
        "name": "SKYSAT-B",
        "group": "resource",
        "lat": 10.192724132789541,
        "lon": -72.68156831647588,
        "alt_km": 611.3088799722336,
        "timestamp": "2025-12-11T05:00:25.968144+00:00",
        "meta_object_name": "SKYSAT-B",
        "meta_object_id": "2014-037D",
        "meta_epoch": "2025-12-10T17:39:31.026528",
        "meta_mean_motion": 14.87315851,
        "meta_eccentricity": 0.00059891,
        "meta_inclination": 98.3608,
        "meta_ra_of_asc_node": 288.3359,
        "meta_arg_of_pericenter": 156.2588,
        "meta_mean_anomaly": 203.8904,
        "meta_ephemeris_type": 0,
        "meta_classification_type": "U",
        "meta_norad_cat_id": 40072,
        "meta_element_set_no": 999,
        "meta_rev_at_epoch": 61794,
        "meta_bstar": 0.00035726525,
        "meta_mean_motion_dot": 3.165e-05,
        "meta_mean_motion_ddot": 0,
        "tle_line1": "1 40072U 14037D   25344.73577577  .00003165  00000+0  35727-3 0  9995",
        "tle_line2": "2 40072  98.3608 288.3359 0005989 156.2588 203.8904 14.87315851617949"
      },
      "geometry": {
        "type": "Point",
        "coordinates": [
          -72.68156831647588,
          10.192724132789541
        ]
      }
    }
  ]
}